P22dgNQ 27.5  0.15  K258K 312.52967  264.09927  152.05620   16.47601  0.3747152  0.72885880   1.2228517                  3   1    0 days 0.12         NEOCPV0247
P22dgNQ 22.4  0.15  K258K   0.06583  319.09085  302.20489   21.85605  0.9898872  0.00116417  89.4933802                  3   1    0 days 0.12         NEOCPV0248
P22dgNQ 22.1  0.15  K258K   0.68876  321.60702  298.86533   21.18579  0.9524547  0.01143366  19.5139838                  3   1    0 days 0.12         NEOCPV0249
P22dgNQ 21.2  0.15  K258K 326.58226  223.40909  191.01232   20.57004  0.4979997  0.32667543   2.0879739                  3   1    0 days 0.12         NEOCPV0250
P22dgNQ 19.8  0.15  K258K  38.24796  347.30447  255.23421   19.50722  0.4601332  0.25891453   2.4379891                  3   1    0 days 0.12         NEOCPV0251
P22dgNQ 22.0  0.15  K258K 335.55377  232.18291  179.66194   21.47752  0.5840247  0.29819887   2.2188710                  3   1    0 days 0.12         NEOCPV0252
P22dgNQ 22.0  0.15  K258K  34.67452  348.19385  270.54381   13.30787  0.3729909  0.40459685   1.8104549                  3   1    0 days 0.12         NEOCPV0253
P22dgNQ 20.3  0.15  K258K  31.25470  347.52966  261.03354   18.42670  0.4926301  0.25370108   2.4712756                  3   1    0 days 0.12         NEOCPV0254
P22dgNQ 21.5  0.15  K258K 301.38618  201.85889  207.85755   15.05349  0.2071567  0.49539397   1.5818631                  3   1    0 days 0.12         NEOCPV0255
P22dgNQ 22.2  0.15  K258K 353.98519  237.90724  171.05059   26.86506  0.8335191  0.08946658   4.9510293                  3   1    0 days 0.12         NEOCPV0256
P22dgNQ 20.7  0.15  K258K 299.49779  171.04334  224.67824   16.16998  0.0587916  0.45288322   1.6793655                  3   1    0 days 0.12         NEOCPV0257
P22dgNQ 18.8  0.15  K258K 109.59951  322.23702  234.67181   22.38551  0.2537677  0.34270888   2.0223321                  3   1    0 days 0.12         NEOCPV0258
P22dgNQ 23.4  0.15  K258K  40.17063  341.24734  280.92693    9.70574  0.2732407  0.56132299   1.4554395                  3   1    0 days 0.12         NEOCPV0259
P22dgNQ 23.2  0.15  K258K 326.18673  239.94155  172.34178   18.79578  0.4826437  0.45133854   1.6831950                  3   1    0 days 0.12         NEOCPV0260
P22dgNQ 19.5  0.15  K258K 245.63824  237.51560  220.87143   21.18320  0.1535394  0.38646216   1.8666579                  3   1    0 days 0.12         NEOCPV0261
P22dgNQ 20.8  0.15  K258K 356.02478  230.43817  181.29318   27.67987  0.8791847  0.04666113   7.6412754                  3   1    0 days 0.12         NEOCPV0262
P22dgNQ 20.3  0.15  K258K  34.42563  349.45991  258.84456   18.04542  0.4586319  0.27483297   2.3429166                  3   1    0 days 0.12         NEOCPV0263
P22dgNQ 21.5  0.15  K258K  18.54944  337.25066  279.55351   17.00664  0.5991871  0.22269070   2.6956779                  3   1    0 days 0.12         NEOCPV0264
P22dgNQ 22.3  0.15  K258K  18.17962  330.21955  288.81259   16.09937  0.5891413  0.25508096   2.4623551                  3   1    0 days 0.12         NEOCPV0265
P22dgNQ 19.3  0.15  K258K   3.19089  333.32200  270.79365   23.49251  0.9013769  0.02584579  11.3294673                  3   1    0 days 0.12         NEOCPV0266
P22dgNQ 23.7  0.15  K258K 313.10094  240.53389  173.38426   15.09236  0.3609059  0.59385063   1.4017952                  3   1    0 days 0.12         NEOCPV0267
P22dgNQ 19.9  0.15  K258K 267.27630  213.67770  221.44699   19.68052  0.1164672  0.39261465   1.8471056                  3   1    0 days 0.12         NEOCPV0268
P22dgNQ 21.7  0.15  K258K 301.44859  184.35360  215.14208   13.47515  0.1183305  0.52916840   1.5138172                  3   1    0 days 0.12         NEOCPV0269
P22dgNQ 20.7  0.15  K258K 301.13004  206.23751  209.27238   18.00304  0.2511437  0.41903404   1.7686281                  3   1    0 days 0.12         NEOCPV0270
P22dgNQ 21.3  0.15  K258K  12.65630  335.12130  281.25498   18.25683  0.6920937  0.15364432   3.4524313                  3   1    0 days 0.12         NEOCPV0271
P22dgNQ 21.2  0.15  K258K  53.76468   19.41987  241.49960   14.14175  0.1448062  0.46361688   1.6533440                  3   1    0 days 0.12         NEOCPV0272
P22dgNQ 19.4  0.15  K258K  28.26424  340.86842  259.92429   21.21266  0.5775790  0.18888390   3.0084266                  3   1    0 days 0.12         NEOCPV0273
P22dgNQ 20.8  0.15  K258K   1.50651  331.89201  284.11793   21.18101  0.9265678  0.01860941  14.1030918                  3   1    0 days 0.12         NEOCPV0274
P22dgNQ 26.3  0.15  K258K 302.57881  259.29779  157.91161   12.71876  0.2896507  0.78266270   1.1661461                  3   1    0 days 0.12         NEOCPV0275
P22dgNQ 20.2  0.15  K258K 329.94211  223.14866  196.05275   23.86837  0.5626634  0.23870535   2.5737199                  3   1    0 days 0.12         NEOCPV0276
P22dgNQ 19.6  0.15  K258K   3.80028  335.19016  271.99928   22.49605  0.8827717  0.03365386   9.5012211                  3   1    0 days 0.12         NEOCPV0277
P22dgNQ 20.0  0.15  K258K 356.01192  228.83366  187.11120   28.62407  0.8867279  0.03873131   8.6515636                  3   1    0 days 0.12         NEOCPV0278
P22dgNQ 23.9  0.15  K258K 314.67041  243.33209  170.62057   15.67474  0.3769162  0.59193423   1.4048191                  3   1    0 days 0.12         NEOCPV0279
P22dgNQ 20.6  0.15  K258K 356.89602  230.64283  182.21078   28.31389  0.8995906  0.03512623   9.2338261                  3   1    0 days 0.12         NEOCPV0280
P22dgNQ 19.8  0.15  K258K 154.20840  304.73439  228.78092   19.20409  0.0416967  0.39934143   1.8263043                  3   1    0 days 0.12         NEOCPV0281
P22dgNQ 22.2  0.15  K258K   5.88884  324.42944  295.82888   19.28779  0.8023535  0.09189952   4.8632569                  3   1    0 days 0.12         NEOCPV0282
P22dgNQ 24.6  0.15  K258K   4.29954  308.34075  315.61574   21.06764  0.8257327  0.09326294   4.8157433                  3   1    0 days 0.12         NEOCPV0283
P22dgNQ 21.3  0.15  K258K 295.42581  188.80572  217.31761   14.85227  0.1173304  0.49696702   1.5785233                  3   1    0 days 0.12         NEOCPV0284
P22dgNQ 28.8  0.15  K258K 318.06651  265.55285  149.68084   18.66861  0.4216035  0.68794844   1.2708632                  3   1    0 days 0.12         NEOCPV0285
P22dgNQ 20.6  0.15  K258K   8.09067  336.57870  277.31776   19.88072  0.7813783  0.08867775   4.9803470                  3   1    0 days 0.12         NEOCPV0286
P22dgNQ 22.9  0.15  K258K 333.59010  239.66913  171.79744   20.86547  0.5598047  0.36323920   1.9453940                  3   1    0 days 0.12         NEOCPV0287
P22dgNQ 20.0  0.15  K258K 102.63187  351.03669  230.84953   18.54435  0.0474850  0.40023995   1.8235700                  3   1    0 days 0.12         NEOCPV0288
P22dgNQ 19.9  0.15  K258K 339.04074  225.13407  194.64946   25.49891  0.6645093  0.16946728   3.2340407                  3   1    0 days 0.12         NEOCPV0289
P22dgNQ 21.7  0.15  K258K 310.39534  163.41447  221.44555   13.02964  0.0710882  0.53316964   1.5062340                  3   1    0 days 0.12         NEOCPV0290
P22dgNQ 20.8  0.15  K258K  38.55596  356.58551  257.39514   16.15645  0.3697094  0.33809157   2.0407031                  3   1    0 days 0.12         NEOCPV0291
P22dgNQ 23.9  0.15  K258K   9.55130  312.76785  309.89373   18.50473  0.7125013  0.18367055   3.0650886                  3   1    0 days 0.12         NEOCPV0292
P22dgNQ 21.5  0.15  K258K  18.11646  336.93997  279.69207   16.96460  0.6062271  0.21893583   2.7264120                  3   1    0 days 0.12         NEOCPV0293
P22dgNQ 20.0  0.15  K258K  63.45404  354.92269  245.04513   18.13554  0.2375877  0.36738435   1.9307333                  3   1    0 days 0.12         NEOCPV0294
P22dgNQ 23.5  0.15  K258K 296.61061  197.05795  205.09419    8.29545  0.1011312  0.70252337   1.2532245                  3   1    0 days 0.12         NEOCPV0295
P22dgNQ 19.8  0.15  K258K  11.76667  337.95136  269.52742   21.51669  0.7465506  0.09931267   4.6181313                  3   1    0 days 0.12         NEOCPV0296
P22dgNQ 20.3  0.15  K258K  62.51924    9.38824  239.99081   17.15174  0.1640793  0.39358532   1.8440674                  3   1    0 days 0.12         NEOCPV0297
P22dgNQ 20.4  0.15  K258K   4.57408  335.24234  278.21408   20.97324  0.8523186  0.04945695   7.3505165                  3   1    0 days 0.12         NEOCPV0298
P22dgNQ 22.4  0.15  K258K  42.35214  359.66018  262.68761   11.11884  0.2513605  0.50376685   1.5642866                  3   1    0 days 0.12         NEOCPV0299
P22dgNQ 20.4  0.15  K258K 334.61918  223.41844  194.18460   23.64068  0.6034831  0.21938464   2.7226924                  3   1    0 days 0.12         NEOCPV0300
P22dgNQ 25.6  0.15  K258K 343.76243  255.03563  154.22845   26.19907  0.6753326  0.30463964   2.1874851                  3   1    0 days 0.12         NEOCPV0301
P22dgNQ 21.7  0.15  K258K  30.33281  345.76427  272.25080   14.48467  0.4326769  0.34976447   1.9950430                  3   1    0 days 0.12         NEOCPV0302
P22dgNQ 22.9  0.15  K258K 298.22454  210.47631  199.24977   11.29773  0.1811256  0.62639603   1.3528097                  3   1    0 days 0.12         NEOCPV0303
P22dgNQ 22.9  0.15  K258K 298.22454  210.47631  199.24977   11.29773  0.1811256  0.62639603   1.3528097                  3   1    0 days 0.12         NEOCPV0304
P22dgNQ 21.9  0.15  K258K  44.15241    7.13916  255.23030   12.27242  0.2331238  0.47546427   1.6257638                  3   1    0 days 0.12         NEOCPV0305
P22dgNQ 19.9  0.15  K258K  77.57003  355.99685  238.24551   18.64763  0.1599047  0.37831158   1.8933735                  3   1    0 days 0.12         NEOCPV0306
P22dgNQ 20.0  0.15  K258K  15.15497  342.15897  267.55420   20.13010  0.6872680  0.13384004   3.7851115                  3   1    0 days 0.12         NEOCPV0307
P22dgNQ 20.4  0.15  K258K  56.81191   10.41279  242.03673   16.73726  0.1923448  0.39044698   1.8539357                  3   1    0 days 0.12         NEOCPV0308
